NORAD_CAT_ID,OBJECT_NAME,OBJECT_TYPE,EPOCH,MEAN_MOTION,ECCENTRICITY,INCLINATION,RA_OF_ASC_NODE,ARG_OF_PERICENTER,MEAN_ANOMALY,BSTAR,MEAN_MOTION_DOT,MEAN_MOTION_DDOT,TLE_LINE0,TLE_LINE1,TLE_LINE2,SEMIMAJOR_AXIS,PERIOD,APOGEE,PERIGEE,DECAYED
51715.0,STARLINK-3533,PAYLOAD,2024-05-23 21:17:56,15.08843826,0.0001412,53.2191,28.6445,92.0448,268.0706,0.00036398,5.51e-05,0.0,0 STARLINK-3533,1 51715U 22016B   24144.88746285  .00005510  00000-0  36398-3 0  9996,2 51715  53.2191  28.6445 0001412  92.0448 268.0706 15.08843826125705,6917.869,95.437,540.71,538.757,0.0
51715.0,STARLINK-3533,PAYLOAD,2024-05-24 02:04:05,15.08846521,0.000181,53.2196,27.7543,112.9227,247.1956,0.00046091,7.056e-05,0.0,0 STARLINK-3533,1 51715U 22016B   24145.08618029  .00007056  00000-0  46091-3 0  9991,2 51715  53.2196  27.7543 0001810 112.9227 247.1956 15.08846521125731,6917.86,95.437,540.978,538.473,0.0
51715.0,STARLINK-3533,PAYLOAD,2024-05-24 21:08:43,15.08843731,0.0001669,53.2177,24.1841,122.716,237.3994,0.0001816,2.604e-05,0.0,0 STARLINK-3533,1 51715U 22016B   24145.88106157  .00002604  00000-0  18160-3 0  9993,2 51715  53.2177  24.1841 0001669 122.7160 237.3994 15.08843731125855,6917.869,95.437,540.889,538.579,0.0
51715.0,STARLINK-3533,PAYLOAD,2024-05-24 22:44:06,15.08843031,0.0001283,53.2174,23.8875,108.6034,251.5097,0.00019485,2.815e-05,0.0,0 STARLINK-3533,1 51715U 22016B   24145.94730218  .00002815  00000-0  19485-3 0  9996,2 51715  53.2174  23.8875 0001283 108.6034 251.5097 15.08843031125866,6917.871,95.437,540.624,538.849,0.0
51715.0,STARLINK-3533,PAYLOAD,2024-05-25 08:16:26,15.08809822,0.000107,53.2175,22.1114,120.7352,239.3746,-0.00063588,-0.00010385,0.0,0 STARLINK-3533,1 51715U 22016B   24146.34475147 -.00010385  00000-0 -63588-3 0  9994,2 51715  53.2175  22.1114 0001070 120.7352 239.3746 15.08809822125929,6917.973,95.439,540.578,539.097,0.0
51715.0,STARLINK-3533,PAYLOAD,2024-05-25 14:37:58,15.08837343,0.0001611,53.2181,20.9237,113.6481,246.4681,7.4706e-05,9.01e-06,0.0,0 STARLINK-3533,1 51715U 22016B   24146.60970684  .00000901  00000-0  74706-4 0  9995,2 51715  53.2181  20.9237 0001611 113.6481 246.4681 15.08837343125963,6917.889,95.438,540.868,538.639,0.0
51715.0,STARLINK-3533,PAYLOAD,2024-05-25 20:59:31,15.08834648,0.0001737,53.2193,19.7335,120.1994,239.917,-1.3438e-05,-5.02e-06,0.0,0 STARLINK-3533,1 51715U 22016B   24146.87466894 -.00000502  00000-0 -13438-4 0  9991,2 51715  53.2193  19.7335 0001737 120.1994 239.9170 15.08834648126003,6917.897,95.438,540.963,538.56,0.0
51715.0,STARLINK-3533,PAYLOAD,2024-05-26 01:45:40,15.08838212,0.000185,53.2181,18.8389,127.6999,232.4161,-6.1268e-05,-1.263e-05,0.0,0 STARLINK-3533,1 51715U 22016B   24147.07338724 -.00001263  00000-0 -61268-4 0  9993,2 51715  53.2181  18.8389 0001850 127.6999 232.4161 15.08838212126034,6917.886,95.438,541.031,538.471,0.0
51715.0,STARLINK-3533,PAYLOAD,2024-05-26 22:25:41,15.08848916,0.0001333,53.2171,14.9745,114.7697,245.3434,0.00030039,4.497e-05,0.0,0 STARLINK-3533,1 51715U 22016B   24147.93450624  .00004497  00000-0  30039-3 0  9993,2 51715  53.2171  14.9745 0001333 114.7697 245.3434 15.08848916126166,6917.853,95.437,540.64,538.796,0.0
51715.0,STARLINK-3533,PAYLOAD,2024-05-27 20:41:05,15.08842382,0.00012,53.2178,10.8105,95.8642,264.2487,0.00013451,1.854e-05,0.0,0 STARLINK-3533,1 51715U 22016B   24148.86186802  .00001854  00000-0  13451-3 0  9993,2 51715  53.2178  10.8105 0001200  95.8642 264.2487 15.08842382126305,6917.873,95.437,540.568,538.908,0.0
51715.0,STARLINK-3533,PAYLOAD,2024-05-27 22:16:28,15.08843683,0.0001118,53.2171,10.5127,81.0314,279.0804,0.00014677,2.049e-05,0.0,0 STARLINK-3533,1 51715U 22016B   24148.92810768  .00002049  00000-0  14677-3 0  9993,2 51715  53.2171  10.5127 0001118  81.0314 279.0804 15.08843683126313,6917.869,95.437,540.508,538.961,0.0
51715.0,STARLINK-3533,PAYLOAD,2024-05-28 07:48:47,15.08847825,0.0001172,53.2175,8.7291,81.3214,278.7911,0.00014112,1.959e-05,0.0,0 STARLINK-3533,1 51715U 22016B   24149.32554486  .00001959  00000-0  14112-3 0  9993,2 51715  53.2175   8.7291 0001172  81.3214 278.7911 15.08847825126373,6917.856,95.437,540.532,538.911,0.0
51715.0,STARLINK-3533,PAYLOAD,2024-05-28 22:07:15,15.08848257,0.000138,53.2182,6.0477,71.822,288.2922,0.00014748,2.061e-05,0.0,0 STARLINK-3533,1 51715U 22016B   24149.92170386  .00002061  00000-0  14748-3 0  9992,2 51715  53.2182   6.0477 0001380  71.8220 288.2922 15.08848257126468,6917.855,95.437,540.675,538.765,0.0
51715.0,STARLINK-3533,PAYLOAD,2024-05-28 23:42:38,15.08849734,0.0001395,53.2183,5.7488,71.6834,288.431,0.00016471,2.335e-05,0.0,0 STARLINK-3533,1 51715U 22016B   24149.98794274  .00002335  00000-0  16471-3 0  9995,2 51715  53.2183   5.7488 0001395  71.6834 288.4310 15.08849734126477,6917.851,95.437,540.681,538.751,0.0
51715.0,STARLINK-3533,PAYLOAD,2024-05-29 20:22:39,15.08839532,0.0001673,53.2196,1.8777,60.3527,299.7631,0.00029544,4.417e-05,0.0,0 STARLINK-3533,1 51715U 22016B   24150.84906789  .00004417  00000-0  29544-3 0  9996,2 51715  53.2196   1.8777 0001673  60.3527 299.7631 15.08839532126603,6917.882,95.438,540.904,538.589,0.0
51715.0,STARLINK-3533,PAYLOAD,2024-05-30 13:51:53,15.08848192,0.0001157,53.2173,358.6162,101.266,258.8462,7.6013e-05,9.22e-06,0.0,0 STARLINK-3533,1 51715U 22016B   24151.57770088  .00000922  00000-0  76013-4 0  9999,2 51715  53.2173 358.6162 0001157 101.2660 258.8462 15.08848192126711,6917.855,95.437,540.521,538.92,0.0
51715.0,STARLINK-3533,PAYLOAD,2024-05-30 20:13:25,15.08855801,0.0001251,53.2182,357.429,92.4876,267.6259,0.00012062,1.633e-05,0.0,0 STARLINK-3533,1 51715U 22016B   24151.84265470  .00001633  00000-0  12062-3 0  9996,2 51715  53.2182 357.4290 0001251  92.4876 267.6259 15.08855801126756,6917.832,95.437,540.563,538.832,0.0
51715.0,STARLINK-3533,PAYLOAD,2024-05-30 23:24:11,15.08856836,0.000124,53.2181,356.8338,94.0295,266.0839,0.00012531,1.708e-05,0.0,0 STARLINK-3533,1 51715U 22016B   24151.97513257  .00001708  00000-0  12531-3 0  9993,2 51715  53.2181 356.8338 0001240  94.0295 266.0839 15.08856836126770,6917.829,95.436,540.552,538.836,0.0
51715.0,STARLINK-3533,PAYLOAD,2024-05-31 20:04:12,15.08840556,0.0001235,53.218,352.9657,103.1217,256.9913,5.1697e-05,5.35e-06,0.0,0 STARLINK-3533,1 51715U 22016B   24152.83626143  .00000535  00000-0  51697-4 0  9992,2 51715  53.2180 352.9657 0001235 103.1217 256.9913 15.08840556126908,6917.879,95.438,540.598,538.889,0.0
51715.0,STARLINK-3533,PAYLOAD,2024-06-01 13:33:27,15.08837325,0.0001272,53.2185,349.6979,92.4529,267.6609,2.9562e-06,-2.41e-06,0.0,0 STARLINK-3533,1 51715U 22016B   24153.56490640 -.00000241  00000-0  29562-5 0  9996,2 51715  53.2185 349.6979 0001272  92.4529 267.6609 15.08837325127014,6917.889,95.438,540.634,538.874,0.0
51715.0,STARLINK-3533,PAYLOAD,2024-06-02 05:27:19,15.088411,0.0001198,53.2187,346.7251,86.9063,273.2066,-2.9872e-05,-7.63e-06,0.0,0 STARLINK-3533,1 51715U 22016B   24154.22730511 -.00000763  00000-0 -29872-4 0  9997,2 51715  53.2187 346.7251 0001198  86.9063 273.2066 15.08841100127112,6917.877,95.437,540.571,538.913,0.0
51715.0,STARLINK-3533,PAYLOAD,2024-06-03 11:39:39,15.08839991,0.0001993,53.2186,341.0744,76.1619,283.9594,0.0001024,1.342e-05,0.0,0 STARLINK-3533,1 51715U 22016B   24155.48587106  .00001342  00000-0  10240-3 0  9996,2 51715  53.2186 341.0744 0001993  76.1619 283.9594 15.08839991127307,6917.88,95.438,541.124,538.367,0.0
51715.0,STARLINK-3533,PAYLOAD,2024-06-03 19:36:34,15.08840211,0.0002004,53.219,339.5871,77.3362,282.7854,9.1644e-05,1.171e-05,0.0,0 STARLINK-3533,1 51715U 22016B   24155.81707159  .00001171  00000-0  91644-4 0  9993,2 51715  53.2190 339.5871 0002004  77.3362 282.7854 15.08840211127355,6917.88,95.438,541.131,538.358,0.0
51715.0,STARLINK-3533,PAYLOAD,2024-06-04 05:08:54,15.08832872,0.0001459,53.2184,337.8051,82.5675,277.5483,3.0205e-05,1.93e-06,0.0,0 STARLINK-3533,1 51715U 22016B   24156.21451849  .00000193  00000-0  30205-4 0  9999,2 51715  53.2184 337.8051 0001459  82.5675 277.5483 15.08832872127418,6917.902,95.438,540.776,538.758,0.0
51715.0,STARLINK-3533,PAYLOAD,2024-06-05 04:59:40,15.08830969,0.0001283,53.2262,333.3437,81.4813,278.6325,0.00026715,3.965e-05,0.0,0 STARLINK-3533,1 51715U 22016B   24157.20811305  .00003965  00000-0  26715-3 0  9996,2 51715  53.2262 333.3437 0001283  81.4813 278.6325 15.08830969127569,6917.908,95.438,540.661,538.885,0.0
51715.0,STARLINK-3533,PAYLOAD,2024-06-05 20:53:32,15.0883973,0.0001235,53.2163,330.3684,79.8489,280.2642,8.2803e-05,1.03e-05,0.0,0 STARLINK-3533,1 51715U 22016B   24157.87051409  .00001030  00000-0  82803-4 0  9992,2 51715  53.2163 330.3684 0001235  79.8489 280.2642 15.08839730127664,6917.881,95.438,540.601,538.892,0.0
51715.0,STARLINK-3533,PAYLOAD,2024-06-06 04:50:28,15.08835389,0.0001562,53.2178,328.8803,81.2606,278.8563,0.000117,1.574e-05,0.0,0 STARLINK-3533,1 51715U 22016B   24158.20171717  .00001574  00000-0  11700-3 0  9995,2 51715  53.2178 328.8803 0001562  81.2606 278.8563 15.08835389127713,6917.894,95.438,540.84,538.679,0.0
51715.0,STARLINK-3533,PAYLOAD,2024-06-06 20:44:18,15.08845735,0.0001217,53.2111,325.9076,88.5123,271.6008,0.00017053,2.428e-05,0.0,0 STARLINK-3533,1 51715U 22016B   24158.86410675  .00002428  00000-0  17053-3 0  9992,2 51715  53.2111 325.9076 0001217  88.5123 271.6008 15.08845735127813,6917.863,95.437,540.57,538.886,0.0
51715.0,STARLINK-3533,PAYLOAD,2024-06-07 20:35:06,15.08837214,0.0001304,53.2124,321.4473,86.5313,273.5828,5.4024e-05,5.72e-06,0.0,0 STARLINK-3533,1 51715U 22016B   24159.85771924  .00000572  00000-0  54024-4 0  9997,2 51715  53.2124 321.4473 0001304  86.5313 273.5828 15.08837214127965,6917.889,95.438,540.656,538.852,0.0
51715.0,STARLINK-3533,PAYLOAD,2024-06-08 20:25:52,15.08859844,0.0001549,53.2165,316.9876,91.3659,268.7511,0.00012026,1.627e-05,0.0,0 STARLINK-3533,1 51715U 22016B   24160.85130427  .00001627  00000-0  12026-3 0  9993,2 51715  53.2165 316.9876 0001549  91.3659 268.7511 15.08859844128110,6917.82,95.436,540.756,538.613,0.0
